{
  "norad_id": 50171,
  "name": "STARLINK-3286",
  "history": [
    {
      "epoch": "2026-03-28T22:14:59.220384Z",
      "apogee_km": 540.5624467034886,
      "perigee_km": 538.8980078486056,
      "latitude_deg": 1.936039401034139e-06,
      "longitude_deg": 2.6740477661453794,
      "height_km": 540.6227837550871,
      "semi_major_axis_km": 6917.867227276047,
      "eccentricity": 0.0001203,
      "inclination_deg": 53.2167,
      "raan_deg": 162.7613,
      "arg_perigee_deg": 89.7733,
      "mean_anomaly_deg": 270.3397,
      "mean_motion_rev_day": 15.08844306
    }
  ]
}