{"fetched_at":"2026-03-29T16:36:15Z","count":15609,"tles":[{"name":"STARLINK-3286","line1":"1 50171U 21125R   26087.92707431  .00001659  00000+0  12226-3 0  9997","line2":"2 50171  53.2167 162.7613 0001203  89.7733 270.3397 15.08844306239508","category":"Starlink"}]}